[{"OBJECT_NAME":"SAOCOM 1A","OBJECT_ID":"2018-076A","EPOCH":"2026-03-29T04:53:06.434880","MEAN_MOTION":14.82160056,"ECCENTRICITY":0.0001434,"INCLINATION":97.8906,"RA_OF_ASC_NODE":276.1007,"ARG_OF_PERICENTER":86.2121,"MEAN_ANOMALY":273.9256,"EPHEMERIS_TYPE":0,"CLASSIFICATION_TYPE":"U","NORAD_CAT_ID":43641,"ELEMENT_SET_NO":999,"REV_AT_EPOCH":40425,"BSTAR":6.4811e-5,"MEAN_MOTION_DOT":4.64e-6,"MEAN_MOTION_DDOT":0},{"OBJECT_NAME":"H-2A R/B","OBJECT_ID":"2018-084L","EPOCH":"2026-03-29T04:52:42.559968","MEAN_MOTION":15.42169578,"ECCENTRICITY":0.0023691,"INCLINATION":98.8708,"RA_OF_ASC_NODE":309.7726,"ARG_OF_PERICENTER":317.2037,"MEAN_ANOMALY":42.736,"EPHEMERIS_TYPE":0,"CLASSIFICATION_TYPE":"U","NORAD_CAT_ID":43682,"ELEMENT_SET_NO":999,"REV_AT_EPOCH":40878,"BSTAR":0.00062997,"MEAN_MOTION_DOT":0.00027229,"MEAN_MOTION_DDOT":0},{"OBJECT_NAME":"SAOCOM 1B","OBJECT_ID":"2020-059A","EPOCH":"2026-03-29T04:00:52.498656","MEAN_MOTION":14.8215641,"ECCENTRICITY":0.0001529,"INCLINATION":97.8906,"RA_OF_ASC_NODE":275.1628,"ARG_OF_PERICENTER":86.304,"MEAN_ANOMALY":273.8348,"EPHEMERIS_TYPE":0,"CLASSIFICATION_TYPE":"U","NORAD_CAT_ID":46265,"ELEMENT_SET_NO":999,"REV_AT_EPOCH":30163,"BSTAR":4.6531e-5,"MEAN_MOTION_DOT":3.18e-6,"MEAN_MOTION_DDOT":0},{"OBJECT_NAME":"CSS (TIANHE)","OBJECT_ID":"2021-035A","EPOCH":"2026-03-28T23:18:08.263008","MEAN_MOTION":15.61596075,"ECCENTRICITY":0.0003972,"INCLINATION":41.4668,"RA_OF_ASC_NODE":90.7542,"ARG_OF_PERICENTER":51.5615,"MEAN_ANOMALY":308.558,"EPHEMERIS_TYPE":0,"CLASSIFICATION_TYPE":"U","NORAD_CAT_ID":48274,"ELEMENT_SET_NO":999,"REV_AT_EPOCH":28062,"BSTAR":0.00017362,"MEAN_MOTION_DOT":0.00015046,"MEAN_MOTION_DDOT":0},{"OBJECT_NAME":"COSMOS 2550","OBJECT_ID":"2021-056A","EPOCH":"2026-03-28T11:49:31.757952","MEAN_MOTION":15.33828274,"ECCENTRICITY":0.000844,"INCLINATION":67.1421,"RA_OF_ASC_NODE":344.0047,"ARG_OF_PERICENTER":269.5686,"MEAN_ANOMALY":90.4502,"EPHEMERIS_TYPE":0,"CLASSIFICATION_TYPE":"U","NORAD_CAT_ID":48865,"ELEMENT_SET_NO":999,"REV_AT_EPOCH":26634,"BSTAR":1.89685e-7,"MEAN_MOTION_DOT":-1.86e-6,"MEAN_MOTION_DDOT":0},{"OBJECT_NAME":"CZ-2C R/B","OBJECT_ID":"2022-058K","EPOCH":"2026-03-28T15:54:43.791840","MEAN_MOTION":15.55620973,"ECCENTRICITY":0.004154,"INCLINATION":50.1874,"RA_OF_ASC_NODE":220.5877,"ARG_OF_PERICENTER":282.163,"MEAN_ANOMALY":77.4689,"EPHEMERIS_TYPE":0,"CLASSIFICATION_TYPE":"U","NORAD_CAT_ID":52794,"ELEMENT_SET_NO":999,"REV_AT_EPOCH":21308,"BSTAR":0.00063634,"MEAN_MOTION_DOT":0.00046065,"MEAN_MOTION_DDOT":0},{"OBJECT_NAME":"CZ-2C R/B","OBJECT_ID":"2022-132E","EPOCH":"2026-03-29T02:15:03.209760","MEAN_MOTION":15.63668117,"ECCENTRICITY":0.0017581,"INCLINATION":97.2957,"RA_OF_ASC_NODE":92.0262,"ARG_OF_PERICENTER":27.9377,"MEAN_ANOMALY":332.2821,"EPHEMERIS_TYPE":0,"CLASSIFICATION_TYPE":"U","NORAD_CAT_ID":54039,"ELEMENT_SET_NO":999,"REV_AT_EPOCH":19340,"BSTAR":0.00052394,"MEAN_MOTION_DOT":0.00049218,"MEAN_MOTION_DDOT":0},{"OBJECT_NAME":"GSLV R/B","OBJECT_ID":"2022-138AN","EPOCH":"2026-03-29T04:11:55.870080","MEAN_MOTION":14.96897449,"ECCENTRICITY":0.0024016,"INCLINATION":87.3861,"RA_OF_ASC_NODE":159.8394,"ARG_OF_PERICENTER":82.5349,"MEAN_ANOMALY":277.8611,"EPHEMERIS_TYPE":0,"CLASSIFICATION_TYPE":"U","NORAD_CAT_ID":54149,"ELEMENT_SET_NO":999,"REV_AT_EPOCH":18684,"BSTAR":0.00027099,"MEAN_MOTION_DOT":3.155e-5,"MEAN_MOTION_DDOT":0},{"OBJECT_NAME":"XRISM","OBJECT_ID":"2023-137A","EPOCH":"2026-03-29T04:28:04.069344","MEAN_MOTION":15.11724479,"ECCENTRICITY":0.0007936,"INCLINATION":31.0016,"RA_OF_ASC_NODE":157.537,"ARG_OF_PERICENTER":235.2691,"MEAN_ANOMALY":124.7201,"EPHEMERIS_TYPE":0,"CLASSIFICATION_TYPE":"U","NORAD_CAT_ID":57800,"ELEMENT_SET_NO":999,"REV_AT_EPOCH":14074,"BSTAR":0.00043159,"MEAN_MOTION_DOT":7.642e-5,"MEAN_MOTION_DDOT":0},{"OBJECT_NAME":"ACS3","OBJECT_ID":"2024-077B","EPOCH":"2026-03-29T01:50:38.780736","MEAN_MOTION":13.90503655,"ECCENTRICITY":0.0072527,"INCLINATION":97.1962,"RA_OF_ASC_NODE":24.8306,"ARG_OF_PERICENTER":32.561,"MEAN_ANOMALY":327.9997,"EPHEMERIS_TYPE":0,"CLASSIFICATION_TYPE":"U","NORAD_CAT_ID":59588,"ELEMENT_SET_NO":999,"REV_AT_EPOCH":9689,"BSTAR":0.021884,"MEAN_MOTION_DOT":0.00027867,"MEAN_MOTION_DDOT":0},{"OBJECT_NAME":"SZ-21 MODULE","OBJECT_ID":"2025-246C","EPOCH":"2026-03-29T00:54:26.680320","MEAN_MOTION":15.70036431,"ECCENTRICITY":0.0001715,"INCLINATION":41.4742,"RA_OF_ASC_NODE":84.1231,"ARG_OF_PERICENTER":213.355,"MEAN_ANOMALY":146.7184,"EPHEMERIS_TYPE":0,"CLASSIFICATION_TYPE":"U","NORAD_CAT_ID":66515,"ELEMENT_SET_NO":999,"REV_AT_EPOCH":2111,"BSTAR":0.00035621,"MEAN_MOTION_DOT":0.00044105,"MEAN_MOTION_DDOT":0}]
